$$SOE
2460721.500000000, A.D. 2025-Feb-15 00:00:00.0000, -3.591389193065052E+08, 4.617020204852548E+07, 3.198435034849282E+07,
2460728.500000000, A.D. 2025-Feb-22 00:00:00.0000, -3.612854728068191E+08, 3.479993546644583E+07, 3.145673499800924E+07,
2460735.500000000, A.D. 2025-Mar-01 00:00:00.0000, -3.630693247546590E+08, 2.339468703370530E+07, 3.089753898765208E+07,
2460742.500000000, A.D. 2025-Mar-08 00:00:00.0000, -3.644911124701839E+08, 1.196606219739883E+07, 3.030753025067545E+07,
2460749.500000000, A.D. 2025-Mar-15 00:00:00.0000, -3.655518303487034E+08, 5.255377470371276E+05, 2.968749773677946E+07,
2460756.500000000, A.D. 2025-Mar-22 00:00:00.0000, -3.662528216246319E+08, -1.091554722995251E+07, 2.903825022424858E+07,
2460763.500000000, A.D. 2025-Mar-29 00:00:00.0000, -3.665957686942655E+08, -2.234600194194797E+07, 2.836061485937391E+07,
2460770.500000000, A.D. 2025-Apr-05 00:00:00.0000, -3.665826816985365E+08, -3.375479291921069E+07, 2.765543565017822E+07,
2460777.500000000, A.D. 2025-Apr-12 00:00:00.0000, -3.662158873181755E+08, -4.513105139991774E+07, 2.692357210001472E+07,
2460784.500000000, A.D. 2025-Apr-19 00:00:00.0000, -3.654980180058624E+08, -5.646407999218305E+07, 2.616589792771376E+07,
2460791.500000000, A.D. 2025-Apr-26 00:00:00.0000, -3.644320014258314E+08, -6.774335884382083E+07, 2.538329983503111E+07,
2460798.500000000, A.D. 2025-May-03 00:00:00.0000, -3.630210500241684E+08, -7.895855132377483E+07, 2.457667631433470E+07,
2460805.500000000, A.D. 2025-May-10 00:00:00.0000, -3.612686507301266E+08, -9.009950922827572E+07, 2.374693649542145E+07,
2460812.500000000, A.D. 2025-May-17 00:00:00.0000, -3.591785547741980E+08, -1.011562775756363E+08, 2.289499902473942E+07,
2460819.500000000, A.D. 2025-May-24 00:00:00.0000, -3.567547674672159E+08, -1.121190990686727E+08, 2.202179095615890E+07,
2460826.500000000, A.D. 2025-May-31 00:00:00.0000, -3.540015375379839E+08, -1.229784179393873E+08, 2.112824663972773E+07,
2460833.500000000, A.D. 2025-Jun-07 00:00:00.0000, -3.509233464429738E+08, -1.337248819972476E+08, 2.021530674285193E+07,
2460840.500000000, A.D. 2025-Jun-14 00:00:00.0000, -3.475249000234421E+08, -1.443493435751019E+08, 1.928391756534830E+07,
2460847.500000000, A.D. 2025-Jun-21 00:00:00.0000, -3.438111213052235E+08, -1.548428626724235E+08, 1.833503026857351E+07,
2460854.500000000, A.D. 2025-Jun-28 00:00:00.0000, -3.397871413251919E+08, -1.651967105572770E+08, 1.736959987533307E+07,
2460861.500000000, A.D. 2025-Jul-05 00:00:00.0000, -3.354582895082557E+08, -1.754023716932455E+08, 1.638858435520040E+07,
2460868.500000000, A.D. 2025-Jul-12 00:00:00.0000, -3.308300847886656E+08, -1.854515448197471E+08, 1.539294383753818E+07,
2460875.500000000, A.D. 2025-Jul-19 00:00:00.0000, -3.259082272889287E+08, -1.953361437859038E+08, 1.438363988653977E+07,
2460882.500000000, A.D. 2025-Jul-26 00:00:00.0000, -3.206985903506504E+08, -2.050482982192929E+08, 1.336163481328069E+07,
2460889.500000000, A.D. 2025-Aug-02 00:00:00.0000, -3.152072128554281E+08, -2.145803540304853E+08, 1.232789101955846E+07,
2460896.500000000, A.D. 2025-Aug-09 00:00:00.0000, -3.094402918137071E+08, -2.239248737888812E+08, 1.128337036915012E+07,
2460903.500000000, A.D. 2025-Aug-16 00:00:00.0000, -3.034041751442248E+08, -2.330746370531459E+08, 1.022903357315901E+07,
2460910.500000000, A.D. 2025-Aug-23 00:00:00.0000, -2.971053543499100E+08, -2.420226406591641E+08, 9.165839562838912E+06,
2460917.500000000, A.D. 2025-Aug-30 00:00:00.0000, -2.905504567588006E+08, -2.507620982698588E+08, 8.094744876967072E+06,
2460924.500000000, A.D. 2025-Sep-06 00:00:00.0000, -2.837462387440059E+08, -2.592864382037778E+08, 7.016703274436519E+06,
2460931.500000000, A.D. 2025-Sep-13 00:00:00.0000, -2.766995815881743E+08, -2.675893020426651E+08, 5.932665521130159E+06,
2460938.500000000, A.D. 2025-Sep-20 00:00:00.0000, -2.694174867153335E+08, -2.756645456810136E+08, 4.843578915243655E+06,
2460945.500000000, A.D. 2025-Sep-27 00:00:00.0000, -2.619070692286184E+08, -2.835062397228382E+08, 3.750386707241043E+06,
2460952.500000000, A.D. 2025-Oct-04 00:00:00.0000, -2.541755517656378E+08, -2.911086686999869E+08, 2.654027642477870E+06,
2460959.500000000, A.D. 2025-Oct-11 00:00:00.0000, -2.462302590379008E+08, -2.984663300671811E+08, 1.555435582488075E+06,
2460966.500000000, A.D. 2025-Oct-18 00:00:00.0000, -2.380786127623743E+08, -3.055739332609010E+08, 4.555391550446898E+05,
2460973.500000000, A.D. 2025-Oct-25 00:00:00.0000, -2.297281268379504E+08, -3.124263988247454E+08, -6.447385804471225E+05,
2460980.500000000, A.D. 2025-Nov-01 00:00:00.0000, -2.211864027208042E+08, -3.190188575990325E+08, -1.744480456055567E+06,
2460987.500000000, A.D. 2025-Nov-08 00:00:00.0000, -2.124611249576540E+08, -3.253466500179519E+08, -2.842775514100328E+06,
2460994.500000000, A.D. 2025-Nov-15 00:00:00.0000, -2.035600567221893E+08, -3.314053255836347E+08, -3.938719341432303E+06,
2461001.500000000, A.D. 2025-Nov-22 00:00:00.0000, -1.944910349450279E+08, -3.371906423071147E+08, -5.031414439674854E+06,
2461008.500000000, A.D. 2025-Nov-29 00:00:00.0000, -1.852619651836720E+08, -3.426985649897230E+08, -6.119970526070461E+06,
2461015.500000000, A.D. 2025-Dec-06 00:00:00.0000, -1.758808185024437E+08, -3.479252624866885E+08, -7.203504568504244E+06,
2461022.500000000, A.D. 2025-Dec-13 00:00:00.0000, -1.663556299196433E+08, -3.528671073274180E+08, -8.281140871177718E+06,
2461029.500000000, A.D. 2025-Dec-20 00:00:00.0000, -1.566944949187172E+08, -3.575206766739498E+08, -9.352011448814392E+06,
2461036.500000000, A.D. 2025-Dec-27 00:00:00.0000, -1.469055650860057E+08, -3.618827520310980E+08, -1.041525638008346E+07,
2461043.500000000, A.D. 2026-Jan-03 00:00:00.0000, -1.369970443222122E+08, -3.659503183300156E+08, -1.147002405777019E+07,
2461050.500000000, A.D. 2026-Jan-10 00:00:00.0000, -1.269771855074418E+08, -3.697205630721752E+08, -1.251547140250228E+07,
2461057.500000000, A.D. 2026-Jan-17 00:00:00.0000, -1.168542873792205E+08, -3.731908756332225E+08, -1.355076407015426E+07,
2461064.500000000, A.D. 2026-Jan-24 00:00:00.0000, -1.066366915384490E+08, -3.763588467102528E+08, -1.457507665943682E+07,
2461071.500000000, A.D. 2026-Jan-31 00:00:00.0000, -9.633277955263762E+07, -3.792222679245628E+08, -1.558759292345092E+07,
2461078.500000000, A.D. 2026-Feb-07 00:00:00.0000, -8.595097008729206E+07, -3.817791316404679E+08, -1.658750599634963E+07,
2461085.500000000, A.D. 2026-Feb-14 00:00:00.0000, -7.549971580407920E+07, -3.840276310175561E+08, -1.757401866028380E+07,
2461092.500000000, A.D. 2026-Feb-21 00:00:00.0000, -6.498749962927502E+07, -3.859661597208549E+08, -1.854634364172113E+07,
2461099.500000000, A.D. 2026-Feb-28 00:00:00.0000, -5.442283146810007E+07, -3.875933101362771E+08, -1.950370374407613E+07,
2461106.500000000, A.D. 2026-Mar-07 00:00:00.0000, -4.381424741351265E+07, -3.889078720411499E+08, -2.044533178792453E+07,
2461113.500000000, A.D. 2026-Mar-14 00:00:00.0000, -3.317030866289552E+07, -3.899088340635179E+08, -2.137047080489963E+07,
2461120.500000000, A.D. 2026-Mar-21 00:00:00.0000, -2.249959834974765E+07, -3.905953850354084E+08, -2.227837441284683E+07,
2461127.500000000, A.D. 2026-Mar-28 00:00:00.0000, -1.181071829086609E+07, -3.909669142139184E+08, -2.316830710458952E+07,
2461134.500000000, A.D. 2026-Apr-04 00:00:00.0000, -1.112286243856218E+06, -3.910230113367568E+08, -2.403954447444868E+07,
2461141.500000000, A.D. 2026-Apr-11 00:00:00.0000, 9.587066607922347E+06, -3.907634668722993E+08, -2.489137343759066E+07,
2461148.500000000, A.D. 2026-Apr-18 00:00:00.0000, 2.027869811145163E+07, -3.901882724700317E+08, -2.572309245784602E+07,
2461155.500000000, A.D. 2026-Apr-25 00:00:00.0000, 3.095395759700919E+07, -3.892976215951419E+08, -2.653401178751802E+07,
2461162.500000000, A.D. 2026-May-02 00:00:00.0000, 4.160418836956340E+07, -3.880919103757589E+08, -2.732345372502926E+07,
2461169.500000000, A.D. 2026-May-09 00:00:00.0000, 5.222073037407128E+07, -3.865717387289909E+08, -2.809075290791085E+07,
2461176.500000000, A.D. 2026-May-16 00:00:00.0000, 6.279492342268565E+07, -3.847379116275489E+08, -2.883525666514111E+07,
2461183.500000000, A.D. 2026-May-23 00:00:00.0000, 7.331811104506288E+07, -3.825914394838600E+08, -2.955632535064697E+07,
2461190.500000000, A.D. 2026-May-30 00:00:00.0000, 8.378164289233433E+07, -3.801335373295120E+08, -3.025333244182268E+07,
2461197.500000000, A.D. 2026-Jun-06 00:00:00.0000, 9.417687538709134E+07, -3.773656260588751E+08, -3.092566464214367E+07,
2461204.500000000, A.D. 2026-Jun-13 00:00:00.0000, 1.044951742963270E+08, -3.742893355341110E+08, -3.157272230876008E+07,
2461211.500000000, A.D. 2026-Jun-20 00:00:00.0000, 1.147279187368769E+08, -3.709065066235581E+08, -3.219391992102787E+07,
2461218.500000000, A.D. 2026-Jun-27 00:00:00.0000, 1.248665049243543E+08, -3.672191925106272E+08, -3.278868646290883E+07,
2461225.500000000, A.D. 2026-Jul-04 00:00:00.0000, 1.349023496743371E+08, -3.632296600436898E+08, -3.335646578332333E+07,
2461232.500000000, A.D. 2026-Jul-11 00:00:00.0000, 1.448268939184113E+08, -3.589403912531296E+08, -3.389671696908325E+07,
2461239.500000000, A.D. 2026-Jul-18 00:00:00.0000, 1.546316063363901E+08, -3.543540850026031E+08, -3.440891473711915E+07,
2461246.500000000, A.D. 2026-Jul-25 00:00:00.0000, 1.643079871383441E+08, -3.494736587628224E+08, -3.489254984814925E+07,
2461253.500000000, A.D. 2026-Aug-01 00:00:00.0000, 1.738475720555594E+08, -3.443022505461954E+08, -3.534712955034171E+07,
2461260.500000000, A.D. 2026-Aug-08 00:00:00.0000, 1.832419367683655E+08, -3.388432210300205E+08, -3.577217807616062E+07,
2461267.500000000, A.D. 2026-Aug-15 00:00:00.0000, 1.924827021988212E+08, -3.331001554126135E+08, -3.616723719452880E+07,
2461274.500000000, A.D. 2026-Aug-22 00:00:00.0000, 2.015615399172425E+08, -3.270768637768162E+08, -3.653186664953533E+07,
2461281.500000000, A.D. 2026-Aug-29 00:00:00.0000, 2.104701753794584E+08, -3.207773813258910E+08, -3.686564438821277E+07,
$$EOE